{"type": "FeatureCollection", "features": [ {"type": "Feature", "properties": {"norad_id": 41019, "name": "GPS BIIF-11 (PRN 10)", "group": "gnss", "lat": 39.76894020234505, "lon": 71.21332982607788, "alt_km": 20471.550433575234, "timestamp": "2025-12-06T09:34:17.156755+00:00", "meta": {"OBJECT_NAME": "GPS BIIF-11 (PRN 10)", "OBJECT_ID": "2015-062A", "EPOCH": "2025-12-04T19:59:07.703520", "MEAN_MOTION": 2.0056698, "ECCENTRICITY": 0.0110602, "INCLINATION": 56.8265, "RA_OF_ASC_NODE": 38.3083, "ARG_OF_PERICENTER": 229.7198, "MEAN_ANOMALY": 129.3626, "EPHEMERIS_TYPE": 0, "CLASSIFICATION_TYPE": "U", "NORAD_CAT_ID": 41019, "ELEMENT_SET_NO": 999, "REV_AT_EPOCH": 7393, "BSTAR": 0, "MEAN_MOTION_DOT": -6.6e-07, "MEAN_MOTION_DDOT": 0}, "tle": {"line1": "1 41019U 15062A   25338.83272805 -.00000066  00000+0  00000+0 0  9996", "line2": "2 41019  56.8265  38.3083 0110602 229.7198 129.3626  2.00566980 73939"}}, "geometry": {"type": "Point", "coordinates": [71.21332982607788, 39.76894020234505]}}, {"type": "Feature", "properties": {"norad_id": 41028, "name": "GSAT-15 (GAGAN/PRN 139)", "group": "gnss", "lat": -0.025852665171914906, "lon": -47.46409383932228, "alt_km": 35783.19364359794, "timestamp": "2025-12-06T09:34:17.156767+00:00", "meta": {"OBJECT_NAME": "GSAT-15 (GAGAN/PRN 139)", "OBJECT_ID": "2015-065A", "EPOCH": "2025-12-05T20:04:38.626752", "MEAN_MOTION": 1.00271328, "ECCENTRICITY": 0.00030128, "INCLINATION": 0.0385, "RA_OF_ASC_NODE": 95.3666, "ARG_OF_PERICENTER": 140.909, "MEAN_ANOMALY": 233.2753, "EPHEMERIS_TYPE": 0, "CLASSIFICATION_TYPE": "U", "NORAD_CAT_ID": 41028, "ELEMENT_SET_NO": 999, "REV_AT_EPOCH": 3686, "BSTAR": 0, "MEAN_MOTION_DOT": -2.48e-06, "MEAN_MOTION_DDOT": 0}, "tle": {"line1": "1 41028U 15065A   25339.83655818 -.00000248  00000+0  00000+0 0  9991", "line2": "2 41028   0.0385  95.3666 0003012 140.9090 233.2753  1.00271328 36869"}}, "geometry": {"type": "Point", "coordinates": [-47.46409383932228, -0.025852665171914906]}}, {"type": "Feature", "properties": {"norad_id": 41174, "name": "GSAT0209 (GALILEO 12)", "group": "gnss", "lat": -26.305154843674487, "lon": -53.76448584491054, "alt_km": 23231.303313160093, "timestamp": "2025-12-06T09:34:17.156781+00:00", "meta": {"OBJECT_NAME": "GSAT0209 (GALILEO 12)", "OBJECT_ID": "2015-079A", "EPOCH": "2025-12-01T22:43:10.411392", "MEAN_MOTION": 1.70474306, "ECCENTRICITY": 0.0002352, "INCLINATION": 55.7062, "RA_OF_ASC_NODE": 106.6773, "ARG_OF_PERICENTER": 357.4206, "MEAN_ANOMALY": 2.5431, "EPHEMERIS_TYPE": 0, "CLASSIFICATION_TYPE": "U", "NORAD_CAT_ID": 41174, "ELEMENT_SET_NO": 999, "REV_AT_EPOCH": 6141, "BSTAR": 0, "MEAN_MOTION_DOT": 3.5e-07, "MEAN_MOTION_DDOT": 0}, "tle": {"line1": "1 41174U 15079A   25335.94664828  .00000035  00000+0  00000+0 0  9990", "line2": "2 41174  55.7062 106.6773 0002352 357.4206   2.5431  1.70474306 61412"}}, "geometry": {"type": "Point", "coordinates": [-53.76448584491054, -26.305154843674487]}}, {"type": "Feature", "properties": {"norad_id": 41175, "name": "GSAT0208 (GALILEO 11)", "group": "gnss", "lat": 53.71924961752564, "lon": 174.78875758168004, "alt_km": 23213.79494382955, "timestamp": "2025-12-06T09:34:17.156835+00:00", "meta": {"OBJECT_NAME": "GSAT0208 (GALILEO 11)", "OBJECT_ID": "2015-079B", "EPOCH": "2025-12-03T08:09:32.138784", "MEAN_MOTION": 1.70474152, "ECCENTRICITY": 0.00019072, "INCLINATION": 55.7055, "RA_OF_ASC_NODE": 106.6362, "ARG_OF_PERICENTER": 9.6551, "MEAN_ANOMALY": 350.3047, "EPHEMERIS_TYPE": 0, "CLASSIFICATION_TYPE": "U", "NORAD_CAT_ID": 41175, "ELEMENT_SET_NO": 999, "REV_AT_EPOCH": 6185, "BSTAR": 0, "MEAN_MOTION_DOT": 2.2e-07, "MEAN_MOTION_DDOT": 0}, "tle": {"line1": "1 41175U 15079B   25337.33995531  .00000022  00000+0  00000+0 0  9990", "line2": "2 41175  55.7055 106.6362 0001907   9.6551 350.3047  1.70474152 61857"}}, "geometry": {"type": "Point", "coordinates": [174.78875758168004, 53.71924961752564]}}, {"type": "Feature", "properties": {"norad_id": 41241, "name": "IRNSS-1E", "group": "gnss", "lat": -32.82847527415682, "lon": -29.24908333446918, "alt_km": 35775.199118798744, "timestamp": "2025-12-06T09:34:17.156850+00:00", "meta": {"OBJECT_NAME": "IRNSS-1E", "OBJECT_ID": "2016-003A", "EPOCH": "2025-12-05T15:56:23.100864", "MEAN_MOTION": 1.00276837, "ECCENTRICITY": 0.00219002, "INCLINATION": 32.8101, "RA_OF_ASC_NODE": 62.5566, "ARG_OF_PERICENTER": 186.7894, "MEAN_ANOMALY": 176.2103, "EPHEMERIS_TYPE": 0, "CLASSIFICATION_TYPE": "U", "NORAD_CAT_ID": 41241, "ELEMENT_SET_NO": 999, "REV_AT_EPOCH": 3614, "BSTAR": 0, "MEAN_MOTION_DOT": -3.14e-06, "MEAN_MOTION_DDOT": 0}, "tle": {"line1": "1 41241U 16003A   25339.66415626 -.00000314  00000+0  00000+0 0  9997", "line2": "2 41241  32.8101  62.5566 0021900 186.7894 176.2103  1.00276837 36142"}}, "geometry": {"type": "Point", "coordinates": [-29.24908333446918, -32.82847527415682]}}, {"type": "Feature", "properties": {"norad_id": 41328, "name": "GPS BIIF-12 (PRN 32)", "group": "gnss", "lat": -7.073161384446688, "lon": 92.19171921651814, "alt_km": 20257.245066073436, "timestamp": "2025-12-06T09:34:17.156862+00:00", "meta": {"OBJECT_NAME": "GPS BIIF-12 (PRN 32)", "OBJECT_ID": "2016-007A", "EPOCH": "2025-12-05T09:55:37.612128", "MEAN_MOTION": 2.00560998, "ECCENTRICITY": 0.00917952, "INCLINATION": 55.402, "RA_OF_ASC_NODE": 97.1478, "ARG_OF_PERICENTER": 243.3887, "MEAN_ANOMALY": 115.6411, "EPHEMERIS_TYPE": 0, "CLASSIFICATION_TYPE": "U", "NORAD_CAT_ID": 41328, "ELEMENT_SET_NO": 999, "REV_AT_EPOCH": 7195, "BSTAR": 0, "MEAN_MOTION_DOT": -1.1e-07, "MEAN_MOTION_DDOT": 0}, "tle": {"line1": "1 41328U 16007A   25339.41362977 -.00000011  00000+0  00000+0 0  9994", "line2": "2 41328  55.4020  97.1478 0091795 243.3887 115.6411  2.00560998 71958"}}, "geometry": {"type": "Point", "coordinates": [92.19171921651814, -7.073161384446688]}}, {"type": "Feature", "properties": {"norad_id": 41330, "name": "COSMOS 2514 (751)", "group": "gnss", "lat": -14.093878610080248, "lon": -47.076550794136374, "alt_km": 19149.9602959775, "timestamp": "2025-12-06T09:34:17.156874+00:00", "meta": {"OBJECT_NAME": "COSMOS 2514 (751)", "OBJECT_ID": "2016-008A", "EPOCH": "2025-12-05T22:47:49.599168", "MEAN_MOTION": 2.13102523, "ECCENTRICITY": 0.00123646, "INCLINATION": 65.1377, "RA_OF_ASC_NODE": 319.6365, "ARG_OF_PERICENTER": 219.971, "MEAN_ANOMALY": 139.9321, "EPHEMERIS_TYPE": 0, "CLASSIFICATION_TYPE": "U", "NORAD_CAT_ID": 41330, "ELEMENT_SET_NO": 999, "REV_AT_EPOCH": 7650, "BSTAR": 0, "MEAN_MOTION_DOT": -4.9e-07, "MEAN_MOTION_DDOT": 0}, "tle": {"line1": "1 41330U 16008A   25339.94987962 -.00000049  00000+0  00000+0 0  9994", "line2": "2 41330  65.1377 319.6365 0012364 219.9710 139.9321  2.13102523 76505"}}, "geometry": {"type": "Point", "coordinates": [-47.076550794136374, -14.093878610080248]}}, {"type": "Feature", "properties": {"norad_id": 41384, "name": "IRNSS-1F", "group": "gnss", "lat": 2.416773834628032, "lon": -108.65948491730482, "alt_km": 35704.12284211244, "timestamp": "2025-12-06T09:34:17.156886+00:00", "meta": {"OBJECT_NAME": "IRNSS-1F", "OBJECT_ID": "2016-015A", "EPOCH": "2025-12-05T19:57:21.784032", "MEAN_MOTION": 1.00268888, "ECCENTRICITY": 0.00224318, "INCLINATION": 4.8631, "RA_OF_ASC_NODE": 101.471, "ARG_OF_PERICENTER": 179.8046, "MEAN_ANOMALY": 125.322, "EPHEMERIS_TYPE": 0, "CLASSIFICATION_TYPE": "U", "NORAD_CAT_ID": 41384, "ELEMENT_SET_NO": 999, "REV_AT_EPOCH": 3572, "BSTAR": 0, "MEAN_MOTION_DOT": 1.66e-06, "MEAN_MOTION_DDOT": 0}, "tle": {"line1": "1 41384U 16015A   25339.83150213  .00000166  00000+0  00000+0 0  9999", "line2": "2 41384   4.8631 101.4710 0022431 179.8046 125.3220  1.00268888 35728"}}, "geometry": {"type": "Point", "coordinates": [-108.65948491730482, 2.416773834628032]}}, {"type": "Feature", "properties": {"norad_id": 41434, "name": "BEIDOU-2 IGSO-6 (C13)", "group": "gnss", "lat": -59.96014667931857, "lon": -47.84299715809207, "alt_km": 35604.340272892616, "timestamp": "2025-12-06T09:34:17.156897+00:00", "meta": {"OBJECT_NAME": "BEIDOU-2 IGSO-6 (C13)", "OBJECT_ID": "2016-021A", "EPOCH": "2025-12-01T15:57:35.287200", "MEAN_MOTION": 1.00256562, "ECCENTRICITY": 0.00591323, "INCLINATION": 59.9483, "RA_OF_ASC_NODE": 40.0119, "ARG_OF_PERICENTER": 231.2834, "MEAN_ANOMALY": 130.8807, "EPHEMERIS_TYPE": 0, "CLASSIFICATION_TYPE": "U", "NORAD_CAT_ID": 41434, "ELEMENT_SET_NO": 999, "REV_AT_EPOCH": 3550, "BSTAR": 0, "MEAN_MOTION_DOT": -1.55e-06, "MEAN_MOTION_DDOT": 0}, "tle": {"line1": "1 41434U 16021A   25335.66499175 -.00000155  00000+0  00000+0 0  9991", "line2": "2 41434  59.9483  40.0119 0059132 231.2834 130.8807  1.00256562 35501"}}, "geometry": {"type": "Point", "coordinates": [-47.84299715809207, -59.96014667931857]}}, {"type": "Feature", "properties": {"norad_id": 41469, "name": "IRNSS-1G", "group": "gnss", "lat": -4.310794354738663, "lon": -11.668887356416494, "alt_km": 35792.38985625213, "timestamp": "2025-12-06T09:34:17.156910+00:00", "meta": {"OBJECT_NAME": "IRNSS-1G", "OBJECT_ID": "2016-027A", "EPOCH": "2025-12-05T20:25:51.729024", "MEAN_MOTION": 1.00252662, "ECCENTRICITY": 0.00046491, "INCLINATION": 4.7158, "RA_OF_ASC_NODE": 102.2769, "ARG_OF_PERICENTER": 337.0468, "MEAN_ANOMALY": 71.5274, "EPHEMERIS_TYPE": 0, "CLASSIFICATION_TYPE": "U", "NORAD_CAT_ID": 41469, "ELEMENT_SET_NO": 999, "REV_AT_EPOCH": 3524, "BSTAR": 0, "MEAN_MOTION_DOT": -3.28e-06, "MEAN_MOTION_DDOT": 0}, "tle": {"line1": "1 41469U 16027A   25339.85129316 -.00000328  00000+0  00000+0 0  9999", "line2": "2 41469   4.7158 102.2769 0004649 337.0468  71.5274  1.00252662 35246"}}, "geometry": {"type": "Point", "coordinates": [-11.668887356416494, -4.310794354738663]}}]}